NORAD_CAT_ID,OBJECT_NAME,OBJECT_TYPE,EPOCH,MEAN_MOTION,ECCENTRICITY,INCLINATION,RA_OF_ASC_NODE,ARG_OF_PERICENTER,MEAN_ANOMALY,BSTAR,MEAN_MOTION_DOT,MEAN_MOTION_DDOT,TLE_LINE0,TLE_LINE1,TLE_LINE2,SEMIMAJOR_AXIS,PERIOD,APOGEE,PERIGEE,DECAYED
52555.0,STARLINK-3949,PAYLOAD,2024-06-07 14:09:19,15.13726282,0.0005625,53.2172,121.3109,48.9327,311.2153,0.0015062,0.0002726,0.0,0 STARLINK-3949,1 52555U 22051Y   24159.58981230  .00027260  00000-0  15062-2 0  9992,2 52555  53.2172 121.3109 0005625  48.9327 311.2153 15.13726282114832,6902.985,95.129,528.733,520.967,0.0
52555.0,STARLINK-3949,PAYLOAD,2024-06-07 22:04:42,15.13752108,0.0005597,53.2173,119.8174,50.0166,310.1319,0.0018264,0.00033172,0.0,0 STARLINK-3949,1 52555U 22051Y   24159.91993896  .00033172  00000-0  18264-2 0  9996,2 52555  53.2173 119.8174 0005597  50.0166 310.1319 15.13752108114883,6902.907,95.128,528.635,520.908,0.0
52555.0,STARLINK-3949,PAYLOAD,2024-06-08 04:25:00,15.13767622,0.0005603,53.2171,118.6235,50.6336,309.5154,0.0017916,0.00032545,0.0,0 STARLINK-3949,1 52555U 22051Y   24160.18403739  .00032545  00000-0  17916-2 0  9995,2 52555  53.2171 118.6235 0005603  50.6336 309.5154 15.13767622114997,6902.859,95.127,528.592,520.857,0.0
52555.0,STARLINK-3949,PAYLOAD,2024-06-08 13:55:27,15.13794302,0.0005561,53.2172,116.8315,52.0525,308.0971,0.0017229,0.00031304,0.0,0 STARLINK-3949,1 52555U 22051Y   24160.58017853  .00031304  00000-0  17229-2 0  9996,2 52555  53.2172 116.8315 0005561  52.0525 308.0971 15.13794302114981,6902.778,95.125,528.482,520.805,0.0
52555.0,STARLINK-3949,PAYLOAD,2024-06-09 07:21:14,15.13837273,0.0005577,53.217,113.5463,54.2352,305.916,0.0015694,0.00028511,0.0,0 STARLINK-3949,1 52555U 22051Y   24161.30642111  .00028511  00000-0  15694-2 0  9998,2 52555  53.2170 113.5463 0005577  54.2352 305.9160 15.13837273115168,6902.648,95.123,528.362,520.663,0.0
52555.0,STARLINK-3949,PAYLOAD,2024-06-09 13:41:31,15.13853784,0.0005554,53.217,112.3517,55.0471,305.1044,0.0015403,0.00027988,0.0,0 STARLINK-3949,1 52555U 22051Y   24161.57050369  .00027988  00000-0  15403-2 0  9990,2 52555  53.2170 112.3517 0005554  55.0471 305.1044 15.13853784115136,6902.598,95.121,528.296,520.629,0.0
52555.0,STARLINK-3949,PAYLOAD,2024-06-10 05:32:12,15.13898455,0.0005517,53.2165,109.3651,57.0949,303.0575,0.0017235,0.00031407,0.0,0 STARLINK-3949,1 52555U 22051Y   24162.23069717  .00031407  00000-0  17235-2 0  9997,2 52555  53.2165 109.3651 0005517  57.0949 303.0575 15.13898455115305,6902.462,95.119,528.135,520.519,0.0
52555.0,STARLINK-3949,PAYLOAD,2024-06-10 13:27:32,15.13917295,0.0005492,53.2164,107.8718,58.3357,301.8172,0.001548,0.0002818,0.0,0 STARLINK-3949,1 52555U 22051Y   24162.56078713  .00028180  00000-0  15480-2 0  9993,2 52555  53.2164 107.8718 0005492  58.3357 301.8172 15.13917295115280,6902.405,95.117,528.06,520.479,0.0
52555.0,STARLINK-3949,PAYLOAD,2024-06-11 13:13:28,15.13992319,0.0005393,53.2157,103.3912,61.1656,298.9879,0.0021119,0.00038695,0.0,0 STARLINK-3949,1 52555U 22051Y   24163.55102677  .00038695  00000-0  21119-2 0  9998,2 52555  53.2157 103.3912 0005393  61.1656 298.9879 15.13992319115430,6902.176,95.113,527.764,520.319,0.0
52555.0,STARLINK-3949,PAYLOAD,2024-06-12 05:04:04,15.14034722,0.0005411,53.2152,100.4029,63.1898,296.9649,0.0018369,0.00033633,0.0,0 STARLINK-3949,1 52555U 22051Y   24164.21116148  .00033633  00000-0  18369-2 0  9990,2 52555  53.2152 100.4029 0005411  63.1898 296.9649 15.14034722115601,6902.048,95.11,527.647,520.178,0.0
52555.0,STARLINK-3949,PAYLOAD,2024-06-12 12:59:21,15.14053573,0.0005427,53.2153,98.91,64.0369,296.1184,0.001606,0.00029365,0.0,0 STARLINK-3949,1 52555U 22051Y   24164.54122191  .00029365  00000-0  16060-2 0  9994,2 52555  53.2153  98.9100 0005427  64.0369 296.1184 15.14053573115581,6901.99,95.109,527.601,520.11,0.0
52555.0,STARLINK-3949,PAYLOAD,2024-06-13 03:14:51,15.14094017,0.0005413,53.2154,96.2214,65.4601,294.6957,0.0018031,0.00033062,0.0,0 STARLINK-3949,1 52555U 22051Y   24165.13531882  .00033062  00000-0  18031-2 0  9990,2 52555  53.2154  96.2214 0005413  65.4601 294.6957 15.14094017115677,6901.867,95.106,527.468,519.996,0.0
52555.0,STARLINK-3949,PAYLOAD,2024-06-14 12:30:56,15.14181336,0.000541,53.2159,89.9475,68.8839,291.2733,0.0017468,0.00032095,0.0,0 STARLINK-3949,1 52555U 22051Y   24166.52148759  .00032095  00000-0  17468-2 0  9999,2 52555  53.2159  89.9475 0005410  68.8839 291.2733 15.14181336115886,6901.602,95.101,527.201,519.733,0.0
52555.0,STARLINK-3949,PAYLOAD,2024-06-14 18:51:08,15.14199145,0.0005408,53.2162,88.7522,69.7102,290.4473,0.0017608,0.00032372,0.0,0 STARLINK-3949,1 52555U 22051Y   24166.78551042  .00032372  00000-0  17608-2 0  9994,2 52555  53.2162  88.7522 0005408  69.7102 290.4473 15.14199145115924,6901.548,95.1,527.145,519.681,0.0
52555.0,STARLINK-3949,PAYLOAD,2024-06-15 12:16:38,15.14253175,0.0005401,53.2165,85.4657,71.4617,288.6964,0.0019719,0.00036365,0.0,0 STARLINK-3949,1 52555U 22051Y   24167.51155580  .00036365  00000-0  19719-2 0  9994,2 52555  53.2165  85.4657 0005401  71.4617 288.6964 15.14253175116103,6901.384,95.096,526.976,519.521,0.0
52555.0,STARLINK-3949,PAYLOAD,2024-06-15 18:36:48,15.14273354,0.0005391,53.2166,84.2701,72.5149,287.6434,0.0020038,0.00036983,0.0,0 STARLINK-3949,1 52555U 22051Y   24167.77556590  .00036983  00000-0  20038-2 0  9990,2 52555  53.2166  84.2701 0005391  72.5149 287.6434 15.14273354116079,6901.322,95.095,526.908,519.467,0.0
52555.0,STARLINK-3949,PAYLOAD,2024-06-16 04:07:03,15.14307917,0.0005401,53.2165,82.4774,73.3115,286.8472,0.0022785,0.00042167,0.0,0 STARLINK-3949,1 52555U 22051Y   24168.17157378  .00042167  00000-0  22785-2 0  9998,2 52555  53.2165  82.4774 0005401  73.3115 286.8472 15.14307917116135,6901.217,95.093,526.81,519.355,0.0
52555.0,STARLINK-3949,PAYLOAD,2024-06-16 21:32:29,15.14361558,0.000536,53.217,79.1904,75.4905,284.6684,0.0020223,0.00037423,0.0,0 STARLINK-3949,1 52555U 22051Y   24168.89756743  .00037423  00000-0  20223-2 0  9992,2 52555  53.2170  79.1904 0005360  75.4905 284.6684 15.14361558116247,6901.054,95.09,526.618,519.221,0.0
52555.0,STARLINK-3949,PAYLOAD,2024-06-17 22:53:03,15.14430825,0.0005309,53.2175,74.4097,77.9089,282.25,0.0018034,0.00033385,0.0,0 STARLINK-3949,1 52555U 22051Y   24169.95351555  .00033385  00000-0  18034-2 0  9992,2 52555  53.2175  74.4097 0005309  77.9089 282.2500 15.14430825116409,6900.844,95.085,526.373,519.045,0.0
52555.0,STARLINK-3949,PAYLOAD,2024-06-18 00:28:05,15.14433792,0.0005302,53.2175,74.1111,77.8416,282.3172,0.0017378,0.00032157,0.0,0 STARLINK-3949,1 52555U 22051Y   24170.01951086  .00032157  00000-0  17378-2 0  9992,2 52555  53.2175  74.1111 0005302  77.8416 282.3172 15.14433792116489,6900.835,95.085,526.359,519.041,0.0
52555.0,STARLINK-3949,PAYLOAD,2024-06-18 21:03:29,15.14492418,0.0005237,53.2182,70.2265,80.389,279.7696,0.0017266,0.00032,0.0,0 STARLINK-3949,1 52555U 22051Y   24170.87742948  .00032000  00000-0  17266-2 0  9994,2 52555  53.2182  70.2265 0005237  80.3890 279.7696 15.14492418116544,6900.657,95.081,526.136,518.908,0.0
52555.0,STARLINK-3949,PAYLOAD,2024-06-19 09:43:43,15.14525577,0.0005187,53.2182,67.8359,81.8859,278.2724,0.0015955,0.00029565,0.0,0 STARLINK-3949,1 52555U 22051Y   24171.40536345  .00029565  00000-0  15955-2 0  9991,2 52555  53.2182  67.8359 0005187  81.8859 278.2724 15.14525577116690,6900.556,95.079,526.001,518.842,0.0
52555.0,STARLINK-3949,PAYLOAD,2024-06-19 22:23:55,15.14556106,0.000522,53.2187,65.4449,83.6682,276.4907,0.0014563,0.00026972,0.0,0 STARLINK-3949,1 52555U 22051Y   24171.93328634  .00026972  00000-0  14563-2 0  9992,2 52555  53.2187  65.4449 0005220  83.6682 276.4907 15.14556106116708,6900.464,95.077,525.931,518.726,0.0
52555.0,STARLINK-3949,PAYLOAD,2024-06-20 09:29:06,15.1458575,0.0005153,53.2187,63.3531,85.0569,275.1014,0.0014175,0.00026265,0.0,0 STARLINK-3949,1 52555U 22051Y   24172.39520876  .00026265  00000-0  14175-2 0  9999,2 52555  53.2187  63.3531 0005153  85.0569 275.1014 15.14585750116771,6900.373,95.076,525.794,518.683,0.0
52555.0,STARLINK-3949,PAYLOAD,2024-06-20 22:09:16,15.14618941,0.0005103,53.2184,60.9625,85.5134,274.6444,0.0014758,0.00027388,0.0,0 STARLINK-3949,1 52555U 22051Y   24172.92310979  .00027388  00000-0  14758-2 0  9993,2 52555  53.2184  60.9625 0005103  85.5134 274.6444 15.14618941116920,6900.273,95.073,525.659,518.616,0.0
52555.0,STARLINK-3949,PAYLOAD,2024-06-20 23:44:17,15.14622628,0.00051,53.2184,60.6635,85.7618,274.396,0.0014779,0.0002743,0.0,0 STARLINK-3949,1 52555U 22051Y   24172.98909672  .00027430  00000-0  14779-2 0  9994,2 52555  53.2184  60.6635 0005100  85.7618 274.3960 15.14622628116864,6900.261,95.073,525.646,518.607,0.0
52555.0,STARLINK-3949,PAYLOAD,2024-06-21 21:54:34,15.14678394,0.0004988,53.2177,56.4793,88.8364,271.3203,0.0015224,0.00028313,0.0,0 STARLINK-3949,1 52555U 22051Y   24173.91289426  .00028313  00000-0  15224-2 0  9993,2 52555  53.2177  56.4793 0004988  88.8364 271.3203 15.14678394117004,6900.092,95.07,525.399,518.515,0.0
52555.0,STARLINK-3949,PAYLOAD,2024-06-22 20:04:47,15.14729658,0.0004897,53.217,52.2949,91.5722,268.5834,0.0014893,0.00027729,0.0,0 STARLINK-3949,1 52555U 22051Y   24174.83666025  .00027729  00000-0  14893-2 0  9990,2 52555  53.2170  52.2949 0004897  91.5722 268.5834 15.14729658117213,6899.936,95.066,525.18,518.423,0.0
52555.0,STARLINK-3949,PAYLOAD,2024-06-22 21:39:48,15.14734199,0.0004884,53.2168,51.9964,91.5919,268.5635,0.0016133,0.00030077,0.0,0 STARLINK-3949,1 52555U 22051Y   24174.90264262  .00030077  00000-0  16133-2 0  9994,2 52555  53.2168  51.9964 0004884  91.5919 268.5635 15.14734199117155,6899.923,95.066,525.158,518.418,0.0
52555.0,STARLINK-3949,PAYLOAD,2024-06-23 21:24:59,15.14792176,0.0004839,53.2163,47.5116,95.0094,265.1453,0.0017103,0.00031965,0.0,0 STARLINK-3949,1 52555U 22051Y   24175.89235410  .00031965  00000-0  17103-2 0  9991,2 52555  53.2163  47.5116 0004839  95.0094 265.1453 15.14792176117377,6899.747,95.063,524.95,518.273,0.0
